start=new Date('2021-11-04T00:00:00.000Z').valueOf();
sats=[{"TIME_SYSTEM":"UTC","RA_OF_ASC_NODE":"321.2255","TLE_LINE1":"1 45579U 20025BA  21307.62616232 -.00010904  00000-0 -71587-3 0  9997","APOAPSIS":"550.662","PERIOD":"95.598","EPHEMERIS_TYPE":"0","RCS_SIZE":"LARGE","TLE_LINE2":"2 45579  53.0544 321.2255 0004555  29.9741 330.1508 15.06304046 86861","GP_ID":"188857427","SITE":"AFETR","MEAN_MOTION":"15.06304046","FILE":"3200165","OBJECT_ID":"2020-025BA","CLASSIFICATION_TYPE":"U","DECAY_DATE":null,"OBJECT_NAME":"STARLINK-1332","BSTAR":"-0.00071587000000","ARG_OF_PERICENTER":"29.9741","NORAD_CAT_ID":"45579","CENTER_NAME":"EARTH","COUNTRY_CODE":"US","MEAN_ELEMENT_THEORY":"SGP4","ELEMENT_SET_NO":"999","EPOCH":"2021-11-03T15:01:40.424448","INCLINATION":"53.0544","SEMIMAJOR_AXIS":"6925.643","OBJECT_TYPE":"PAYLOAD","MEAN_MOTION_DOT":"-0.00010904","REF_FRAME":"TEME","REV_AT_EPOCH":"8686","MEAN_ANOMALY":"330.1508","LAUNCH_DATE":"2020-04-22","ECCENTRICITY":"0.00045550","MEAN_MOTION_DDOT":"0.0000000000000","PERIAPSIS":"544.353"},{"TIME_SYSTEM":"UTC","RA_OF_ASC_NODE":"12.0523","APOAPSIS":"548.271","TLE_LINE1":"1 45580U 20025BB  21307.44182851  .00009978  00000-0  68817-3 0  9993","EPHEMERIS_TYPE":"0","PERIOD":"95.593","RCS_SIZE":"LARGE","TLE_LINE2":"2 45580  53.0550  12.0523 0001432  75.4894 284.6254 15.06378593 86138","SITE":"AFETR","GP_ID":"188825921","MEAN_MOTION":"15.06378593","FILE":"3199758","OBJECT_ID":"2020-025BB","CLASSIFICATION_TYPE":"U","DECAY_DATE":null,"OBJECT_NAME":"STARLINK-1333","ARG_OF_PERICENTER":"75.4894","BSTAR":"0.00068817000000","NORAD_CAT_ID":"45580","CENTER_NAME":"EARTH","COUNTRY_CODE":"US","MEAN_ELEMENT_THEORY":"SGP4","ELEMENT_SET_NO":"999","EPOCH":"2021-11-03T10:36:13.983264","INCLINATION":"53.0550","OBJECT_TYPE":"PAYLOAD","SEMIMAJOR_AXIS":"6925.414","MEAN_MOTION_DOT":"0.00009978","REF_FRAME":"TEME","REV_AT_EPOCH":"8613","MEAN_ANOMALY":"284.6254","LAUNCH_DATE":"2020-04-22","ECCENTRICITY":"0.00014320","MEAN_MOTION_DDOT":"0.0000000000000","PERIAPSIS":"546.287"},{"DECAY_DATE":null,"OBJECT_NAME":"STARLINK-1335","OBJECT_ID":"2020-025BC","CLASSIFICATION_TYPE":"U","MEAN_MOTION":"15.06390641","FILE":"3199758","COUNTRY_CODE":"US","CENTER_NAME":"EARTH","MEAN_ELEMENT_THEORY":"SGP4","ARG_OF_PERICENTER":"90.9597","BSTAR":"-0.00012576000000","NORAD_CAT_ID":"45581","TIME_SYSTEM":"UTC","TLE_LINE2":"2 45581  53.0555   1.7375 0001215  90.9597 269.1532 15.06390641 86286","RCS_SIZE":"LARGE","GP_ID":"188826673","SITE":"AFETR","PERIOD":"95.593","EPHEMERIS_TYPE":"0","TLE_LINE1":"1 45581U 20025BC  21307.51276735 -.00002154  00000-0 -12576-3 0  9999","APOAPSIS":"548.084","RA_OF_ASC_NODE":"1.7375","ECCENTRICITY":"0.00012150","LAUNCH_DATE":"2020-04-22","MEAN_ANOMALY":"269.1532","PERIAPSIS":"546.401","MEAN_MOTION_DDOT":"0.0000000000000","INCLINATION":"53.0555","OBJECT_TYPE":"PAYLOAD","SEMIMAJOR_AXIS":"6925.377","EPOCH":"2021-11-03T12:18:23.099040","ELEMENT_SET_NO":"999","REV_AT_EPOCH":"8628","MEAN_MOTION_DOT":"-0.00002154","REF_FRAME":"TEME"},{"TIME_SYSTEM":"UTC","TLE_LINE2":"2 45582  53.0542   1.6462 0001254  90.6112 269.5021 15.06401317 85685","RCS_SIZE":"LARGE","GP_ID":"188831002","SITE":"AFETR","PERIOD":"95.592","EPHEMERIS_TYPE":"0","TLE_LINE1":"1 45582U 20025BD  21307.53486964  .00001172  00000-0  97546-4 0  9997","APOAPSIS":"548.078","RA_OF_ASC_NODE":"1.6462","OBJECT_NAME":"STARLINK-1337","DECAY_DATE":null,"CLASSIFICATION_TYPE":"U","OBJECT_ID":"2020-025BD","FILE":"3199878","MEAN_MOTION":"15.06401317","MEAN_ELEMENT_THEORY":"SGP4","COUNTRY_CODE":"US","CENTER_NAME":"EARTH","ARG_OF_PERICENTER":"90.6112","BSTAR":"0.00009754600000","NORAD_CAT_ID":"45582","INCLINATION":"53.0542","OBJECT_TYPE":"PAYLOAD","SEMIMAJOR_AXIS":"6925.345","EPOCH":"2021-11-03T12:50:12.736896","ELEMENT_SET_NO":"999","REV_AT_EPOCH":"8568","MEAN_MOTION_DOT":"0.00001172","REF_FRAME":"TEME","ECCENTRICITY":"0.00012540","LAUNCH_DATE":"2020-04-22","MEAN_ANOMALY":"269.5021","PERIAPSIS":"546.341","MEAN_MOTION_DDOT":"0.0000000000000"},{"FILE":"3200165","MEAN_MOTION":"15.06402099","CLASSIFICATION_TYPE":"U","OBJECT_ID":"2020-025BE","OBJECT_NAME":"STARLINK-1340","DECAY_DATE":null,"NORAD_CAT_ID":"45583","BSTAR":"0.00035792000000","ARG_OF_PERICENTER":"81.6727","CENTER_NAME":"EARTH","COUNTRY_CODE":"US","MEAN_ELEMENT_THEORY":"SGP4","TIME_SYSTEM":"UTC","RA_OF_ASC_NODE":"1.4202","APOAPSIS":"548.211","TLE_LINE1":"1 45583U 20025BE  21307.58279180  .00005054  00000-0  35792-3 0  9990","PERIOD":"95.592","EPHEMERIS_TYPE":"0","SITE":"AFETR","GP_ID":"188857928","TLE_LINE2":"2 45583  53.0552   1.4202 0001450  81.6727 278.4427 15.06402099 86292","RCS_SIZE":"LARGE","MEAN_ANOMALY":"278.4427","LAUNCH_DATE":"2020-04-22","ECCENTRICITY":"0.00014500","MEAN_MOTION_DDOT":"0.0000000000000","PERIAPSIS":"546.203","ELEMENT_SET_NO":"999","EPOCH":"2021-11-03T13:59:13.211520","OBJECT_TYPE":"PAYLOAD","SEMIMAJOR_AXIS":"6925.342","INCLINATION":"53.0552","REF_FRAME":"TEME","MEAN_MOTION_DOT":"0.00005054","REV_AT_EPOCH":"8629"},{"MEAN_MOTION_DDOT":"0.0000000000000","PERIAPSIS":"546.140","MEAN_ANOMALY":"294.6453","LAUNCH_DATE":"2020-04-22","ECCENTRICITY":"0.00015600","MEAN_MOTION_DOT":"-0.00001083","REF_FRAME":"TEME","REV_AT_EPOCH":"8627","ELEMENT_SET_NO":"999","EPOCH":"2021-11-03T10:32:12.651648","OBJECT_TYPE":"PAYLOAD","SEMIMAJOR_AXIS":"6925.356","INCLINATION":"53.0547","NORAD_CAT_ID":"45584","ARG_OF_PERICENTER":"65.4698","BSTAR":"-0.00005380400000","COUNTRY_CODE":"US","CENTER_NAME":"EARTH","MEAN_ELEMENT_THEORY":"SGP4","FILE":"3199758","MEAN_MOTION":"15.06397697","CLASSIFICATION_TYPE":"U","OBJECT_ID":"2020-025BF","OBJECT_NAME":"STARLINK-1343","DECAY_DATE":null,"RA_OF_ASC_NODE":"2.0617","TLE_LINE1":"1 45584U 20025BF  21307.43903532 -.00001083  00000-0 -53804-4 0  9995","APOAPSIS":"548.301","PERIOD":"95.592","EPHEMERIS_TYPE":"0","SITE":"AFETR","GP_ID":"188825422","RCS_SIZE":"LARGE","TLE_LINE2":"2 45584  53.0547   2.0617 0001560  65.4698 294.6453 15.06397697 86277","TIME_SYSTEM":"UTC"},{"MEAN_MOTION_DDOT":"0.0000000000000","PERIAPSIS":"546.367","ECCENTRICITY":"0.00012710","MEAN_ANOMALY":"272.5743","LAUNCH_DATE":"2020-04-22","REV_AT_EPOCH":"8628","MEAN_MOTION_DOT":"0.00004141","REF_FRAME":"TEME","INCLINATION":"53.0554","OBJECT_TYPE":"PAYLOAD","SEMIMAJOR_AXIS":"6925.382","ELEMENT_SET_NO":"999","EPOCH":"2021-11-03T12:29:00.337056","CENTER_NAME":"EARTH","COUNTRY_CODE":"US","MEAN_ELEMENT_THEORY":"SGP4","BSTAR":"0.00029678000000","ARG_OF_PERICENTER":"87.5392","NORAD_CAT_ID":"45585","CLASSIFICATION_TYPE":"U","OBJECT_ID":"2020-025BG","OBJECT_NAME":"STARLINK-1345","DECAY_DATE":null,"FILE":"3199758","MEAN_MOTION":"15.06389095","EPHEMERIS_TYPE":"0","PERIOD":"95.593","TLE_LINE2":"2 45585  53.0554   1.7080 0001271  87.5392 272.5743 15.06389095 86282","RCS_SIZE":"LARGE","GP_ID":"188826174","SITE":"AFETR","RA_OF_ASC_NODE":"1.7080","APOAPSIS":"548.127","TLE_LINE1":"1 45585U 20025BG  21307.52014279  .00004141  00000-0  29678-3 0  9994","TIME_SYSTEM":"UTC"},{"MEAN_MOTION_DDOT":"0.0000000000000","PERIAPSIS":"546.300","MEAN_ANOMALY":"261.8170","LAUNCH_DATE":"2020-04-22","ECCENTRICITY":"0.00013080","MEAN_MOTION_DOT":"0.00000537","REF_FRAME":"TEME","REV_AT_EPOCH":"8629","ELEMENT_SET_NO":"999","EPOCH":"2021-11-03T15:50:40.582752","INCLINATION":"53.0569","SEMIMAJOR_AXIS":"6925.341","OBJECT_TYPE":"PAYLOAD","BSTAR":"0.00005493300000","ARG_OF_PERICENTER":"98.2967","NORAD_CAT_ID":"45586","CENTER_NAME":"EARTH","COUNTRY_CODE":"US","MEAN_ELEMENT_THEORY":"SGP4","MEAN_MOTION":"15.06402425","FILE":"3200165","OBJECT_ID":"2020-025BH","CLASSIFICATION_TYPE":"U","OBJECT_NAME":"STARLINK-1347","DECAY_DATE":null,"RA_OF_ASC_NODE":"1.0598","TLE_LINE1":"1 45586U 20025BH  21307.66019193  .00000537  00000-0  54933-4 0  9998","APOAPSIS":"548.112","PERIOD":"95.592","EPHEMERIS_TYPE":"0","TLE_LINE2":"2 45586  53.0569   1.0598 0001308  98.2967 261.8170 15.06402425 86293","RCS_SIZE":"LARGE","GP_ID":"188857177","SITE":"AFETR","TIME_SYSTEM":"UTC"},{"BSTAR":"0.00010876000000","ARG_OF_PERICENTER":"81.8991","NORAD_CAT_ID":"45587","MEAN_ELEMENT_THEORY":"SGP4","COUNTRY_CODE":"US","CENTER_NAME":"EARTH","FILE":"3200165","MEAN_MOTION":"15.06406058","OBJECT_NAME":"STARLINK-1349","DECAY_DATE":null,"OBJECT_ID":"2020-025BJ","CLASSIFICATION_TYPE":"U","TLE_LINE1":"1 45587U 20025BJ  21307.63070096  .00001339  00000-0  10876-3 0  9993","APOAPSIS":"548.053","RA_OF_ASC_NODE":"1.2173","TLE_LINE2":"2 45587  53.0534   1.2173 0001239  81.8991 278.2138 15.06406058 86309","RCS_SIZE":"LARGE","GP_ID":"188857428","SITE":"AFETR","EPHEMERIS_TYPE":"0","PERIOD":"95.592","TIME_SYSTEM":"UTC","PERIAPSIS":"546.337","MEAN_MOTION_DDOT":"0.0000000000000","LAUNCH_DATE":"2020-04-22","MEAN_ANOMALY":"278.2138","ECCENTRICITY":"0.00012390","MEAN_MOTION_DOT":"0.00001339","REF_FRAME":"TEME","REV_AT_EPOCH":"8630","EPOCH":"2021-11-03T15:08:12.562944","ELEMENT_SET_NO":"999","INCLINATION":"53.0534","OBJECT_TYPE":"PAYLOAD","SEMIMAJOR_AXIS":"6925.330"},{"TIME_SYSTEM":"UTC","TLE_LINE2":"2 45588  53.0550   1.0136 0001138  92.1967 267.9152 15.06402447 86300","RCS_SIZE":"LARGE","SITE":"AFETR","GP_ID":"188856176","PERIOD":"95.592","EPHEMERIS_TYPE":"0","APOAPSIS":"547.994","TLE_LINE1":"1 45588U 20025BK  21307.67495022  .00004398  00000-0  31392-3 0  9992","RA_OF_ASC_NODE":"1.0136","OBJECT_NAME":"STARLINK-1360","DECAY_DATE":null,"OBJECT_ID":"2020-025BK","CLASSIFICATION_TYPE":"U","MEAN_MOTION":"15.06402447","FILE":"3200165","CENTER_NAME":"EARTH","COUNTRY_CODE":"US","MEAN_ELEMENT_THEORY":"SGP4","ARG_OF_PERICENTER":"92.1967","BSTAR":"0.00031392000000","NORAD_CAT_ID":"45588","INCLINATION":"53.0550","SEMIMAJOR_AXIS":"6925.341","OBJECT_TYPE":"PAYLOAD","EPOCH":"2021-11-03T16:11:55.699008","ELEMENT_SET_NO":"999","REV_AT_EPOCH":"8630","REF_FRAME":"TEME","MEAN_MOTION_DOT":"0.00004398","ECCENTRICITY":"0.00011380","LAUNCH_DATE":"2020-04-22","MEAN_ANOMALY":"267.9152","PERIAPSIS":"546.418","MEAN_MOTION_DDOT":"0.0000000000000"}];
